[{"OBJECT_NAME":"STARLINK-36761","OBJECT_ID":"2026-034T","EPOCH":"2026-03-19T15:27:50.235552","MEAN_MOTION":15.80966892,"ECCENTRICITY":7.292e-5,"INCLINATION":53.1605,"RA_OF_ASC_NODE":161.3172,"ARG_OF_PERICENTER":353.567,"MEAN_ANOMALY":6.5344,"EPHEMERIS_TYPE":0,"CLASSIFICATION_TYPE":"U","NORAD_CAT_ID":67867,"ELEMENT_SET_NO":999,"REV_AT_EPOCH":551,"BSTAR":0.00079848779,"MEAN_MOTION_DOT":0.00160554,"MEAN_MOTION_DDOT":0},{"OBJECT_NAME":"STARLINK-36762","OBJECT_ID":"2026-034U","EPOCH":"2026-03-20T05:06:04.860864","MEAN_MOTION":15.81103211,"ECCENTRICITY":0.0001634,"INCLINATION":53.1586,"RA_OF_ASC_NODE":158.4601,"ARG_OF_PERICENTER":140.5151,"MEAN_ANOMALY":219.5991,"EPHEMERIS_TYPE":0,"CLASSIFICATION_TYPE":"U","NORAD_CAT_ID":67868,"ELEMENT_SET_NO":999,"REV_AT_EPOCH":560,"BSTAR":0.0021699,"MEAN_MOTION_DOT":0.00455751,"MEAN_MOTION_DDOT":0},{"OBJECT_NAME":"STARLINK-36779","OBJECT_ID":"2026-034V","EPOCH":"2026-03-20T05:05:00.511008","MEAN_MOTION":15.81030852,"ECCENTRICITY":0.0003046,"INCLINATION":53.1585,"RA_OF_ASC_NODE":158.456,"ARG_OF_PERICENTER":312.5938,"MEAN_ANOMALY":47.4827,"EPHEMERIS_TYPE":0,"CLASSIFICATION_TYPE":"U","NORAD_CAT_ID":67869,"ELEMENT_SET_NO":999,"REV_AT_EPOCH":560,"BSTAR":0.0012306,"MEAN_MOTION_DOT":0.00251233,"MEAN_MOTION_DDOT":0},{"OBJECT_NAME":"STARLINK-36770","OBJECT_ID":"2026-034W","EPOCH":"2026-03-19T15:23:31.334496","MEAN_MOTION":15.80954163,"ECCENTRICITY":0.00012442,"INCLINATION":53.1591,"RA_OF_ASC_NODE":161.2976,"ARG_OF_PERICENTER":84.6629,"MEAN_ANOMALY":275.4536,"EPHEMERIS_TYPE":0,"CLASSIFICATION_TYPE":"U","NORAD_CAT_ID":67870,"ELEMENT_SET_NO":999,"REV_AT_EPOCH":551,"BSTAR":0.0012627587,"MEAN_MOTION_DOT":0.00257049,"MEAN_MOTION_DDOT":0},{"OBJECT_NAME":"STARLINK-36769","OBJECT_ID":"2026-034X","EPOCH":"2026-03-19T12:22:31.707264","MEAN_MOTION":15.80916079,"ECCENTRICITY":0.00018324,"INCLINATION":53.1593,"RA_OF_ASC_NODE":161.935,"ARG_OF_PERICENTER":90.9566,"MEAN_ANOMALY":269.1667,"EPHEMERIS_TYPE":0,"CLASSIFICATION_TYPE":"U","NORAD_CAT_ID":67871,"ELEMENT_SET_NO":999,"REV_AT_EPOCH":549,"BSTAR":0.0010335278,"MEAN_MOTION_DOT":0.00208707,"MEAN_MOTION_DDOT":0},{"OBJECT_NAME":"STARLINK-36786","OBJECT_ID":"2026-034Y","EPOCH":"2026-03-19T15:22:26.110272","MEAN_MOTION":15.80986973,"ECCENTRICITY":7.859e-5,"INCLINATION":53.1595,"RA_OF_ASC_NODE":161.2919,"ARG_OF_PERICENTER":341.9007,"MEAN_ANOMALY":18.1987,"EPHEMERIS_TYPE":0,"CLASSIFICATION_TYPE":"U","NORAD_CAT_ID":67872,"ELEMENT_SET_NO":999,"REV_AT_EPOCH":551,"BSTAR":0.0014623995,"MEAN_MOTION_DOT":0.00299752,"MEAN_MOTION_DDOT":0},{"OBJECT_NAME":"STARLINK-36783","OBJECT_ID":"2026-034Z","EPOCH":"2026-03-19T12:19:17.250240","MEAN_MOTION":15.8094047,"ECCENTRICITY":0.00010807,"INCLINATION":53.159,"RA_OF_ASC_NODE":161.9193,"ARG_OF_PERICENTER":78.4065,"MEAN_ANOMALY":281.7079,"EPHEMERIS_TYPE":0,"CLASSIFICATION_TYPE":"U","NORAD_CAT_ID":67873,"ELEMENT_SET_NO":999,"REV_AT_EPOCH":549,"BSTAR":0.0010354218,"MEAN_MOTION_DOT":0.00209339,"MEAN_MOTION_DDOT":0},{"OBJECT_NAME":"STARLINK-36730","OBJECT_ID":"2026-034AA","EPOCH":"2026-03-20T04:59:36.879936","MEAN_MOTION":15.81137152,"ECCENTRICITY":0.0002119,"INCLINATION":53.1583,"RA_OF_ASC_NODE":158.4294,"ARG_OF_PERICENTER":359.1238,"MEAN_ANOMALY":0.9781,"EPHEMERIS_TYPE":0,"CLASSIFICATION_TYPE":"U","NORAD_CAT_ID":67874,"ELEMENT_SET_NO":999,"REV_AT_EPOCH":560,"BSTAR":0.0020716,"MEAN_MOTION_DOT":0.00434687,"MEAN_MOTION_DDOT":0},{"OBJECT_NAME":"STARLINK-36727","OBJECT_ID":"2026-034AB","EPOCH":"2026-03-20T00:25:24.985920","MEAN_MOTION":15.81053388,"ECCENTRICITY":0.0003768,"INCLINATION":53.1576,"RA_OF_ASC_NODE":159.3745,"ARG_OF_PERICENTER":87.3743,"MEAN_ANOMALY":272.7711,"EPHEMERIS_TYPE":0,"CLASSIFICATION_TYPE":"U","NORAD_CAT_ID":67875,"ELEMENT_SET_NO":999,"REV_AT_EPOCH":557,"BSTAR":0.0018421,"MEAN_MOTION_DOT":0.00382653,"MEAN_MOTION_DDOT":0},{"OBJECT_NAME":"STARLINK-36743","OBJECT_ID":"2026-034AC","EPOCH":"2026-03-19T12:16:02.872704","MEAN_MOTION":15.80911012,"ECCENTRICITY":0.00013386,"INCLINATION":53.1594,"RA_OF_ASC_NODE":161.9039,"ARG_OF_PERICENTER":67.3857,"MEAN_ANOMALY":292.7308,"EPHEMERIS_TYPE":0,"CLASSIFICATION_TYPE":"U","NORAD_CAT_ID":67876,"ELEMENT_SET_NO":999,"REV_AT_EPOCH":549,"BSTAR":0.0013773195,"MEAN_MOTION_DOT":0.0028065,"MEAN_MOTION_DDOT":0},{"OBJECT_NAME":"STARLINK-36784","OBJECT_ID":"2026-034AD","EPOCH":"2026-03-20T04:00:01.999584","MEAN_MOTION":15.72623768,"ECCENTRICITY":0.0001136,"INCLINATION":53.1595,"RA_OF_ASC_NODE":158.6703,"ARG_OF_PERICENTER":68.8884,"MEAN_ANOMALY":39.2809,"EPHEMERIS_TYPE":0,"CLASSIFICATION_TYPE":"U","NORAD_CAT_ID":67877,"ELEMENT_SET_NO":999,"REV_AT_EPOCH":554,"BSTAR":-0.015747,"MEAN_MOTION_DOT":-0.01877291,"MEAN_MOTION_DDOT":0},{"OBJECT_NAME":"STARLINK-36689","OBJECT_ID":"2026-034AE","EPOCH":"2026-03-20T04:55:17.001696","MEAN_MOTION":15.81006412,"ECCENTRICITY":0.0001128,"INCLINATION":53.1588,"RA_OF_ASC_NODE":158.4095,"ARG_OF_PERICENTER":111.0097,"MEAN_ANOMALY":249.1047,"EPHEMERIS_TYPE":0,"CLASSIFICATION_TYPE":"U","NORAD_CAT_ID":67878,"ELEMENT_SET_NO":999,"REV_AT_EPOCH":560,"BSTAR":0.0013252,"MEAN_MOTION_DOT":0.00270879,"MEAN_MOTION_DDOT":0},{"OBJECT_NAME":"STARLINK-36818","OBJECT_ID":"2026-035A","EPOCH":"2026-03-19T19:11:06.907200","MEAN_MOTION":15.7523442,"ECCENTRICITY":0.00018171,"INCLINATION":97.2873,"RA_OF_ASC_NODE":11.6752,"ARG_OF_PERICENTER":123.9865,"MEAN_ANOMALY":236.1573,"EPHEMERIS_TYPE":0,"CLASSIFICATION_TYPE":"U","NORAD_CAT_ID":67879,"ELEMENT_SET_NO":999,"REV_AT_EPOCH":543,"BSTAR":0.0012157046,"MEAN_MOTION_DOT":0.00185553,"MEAN_MOTION_DDOT":0},{"OBJECT_NAME":"STARLINK-36821","OBJECT_ID":"2026-035B","EPOCH":"2026-03-19T19:07:01.532064","MEAN_MOTION":15.75274612,"ECCENTRICITY":0.00012664,"INCLINATION":97.2867,"RA_OF_ASC_NODE":11.6797,"ARG_OF_PERICENTER":120.4898,"MEAN_ANOMALY":239.6492,"EPHEMERIS_TYPE":0,"CLASSIFICATION_TYPE":"U","NORAD_CAT_ID":67880,"ELEMENT_SET_NO":999,"REV_AT_EPOCH":543,"BSTAR":0.00090560794,"MEAN_MOTION_DOT":0.00137648,"MEAN_MOTION_DDOT":0},{"OBJECT_NAME":"STARLINK-36808","OBJECT_ID":"2026-035C","EPOCH":"2026-03-19T18:41:39.119136","MEAN_MOTION":15.80878757,"ECCENTRICITY":8.491e-5,"INCLINATION":97.2884,"RA_OF_ASC_NODE":11.7009,"ARG_OF_PERICENTER":71.948,"MEAN_ANOMALY":288.188,"EPHEMERIS_TYPE":0,"CLASSIFICATION_TYPE":"U","NORAD_CAT_ID":67881,"ELEMENT_SET_NO":999,"REV_AT_EPOCH":543,"BSTAR":0.0011930382,"MEAN_MOTION_DOT":0.00235328,"MEAN_MOTION_DDOT":0},{"OBJECT_NAME":"STARLINK-36817","OBJECT_ID":"2026-035D","EPOCH":"2026-03-20T04:00:01.999584","MEAN_MOTION":15.75172033,"ECCENTRICITY":0.0001693,"INCLINATION":97.286,"RA_OF_ASC_NODE":12.1124,"ARG_OF_PERICENTER":103.7592,"MEAN_ANOMALY":301.8429,"EPHEMERIS_TYPE":0,"CLASSIFICATION_TYPE":"U","NORAD_CAT_ID":67882,"ELEMENT_SET_NO":999,"REV_AT_EPOCH":544,"BSTAR":-0.00011958,"MEAN_MOTION_DOT":-0.00017916,"MEAN_MOTION_DDOT":0},{"OBJECT_NAME":"STARLINK-36856","OBJECT_ID":"2026-035E","EPOCH":"2026-03-20T04:00:01.999584","MEAN_MOTION":15.75187783,"ECCENTRICITY":0.0001454,"INCLINATION":97.286,"RA_OF_ASC_NODE":12.1071,"ARG_OF_PERICENTER":94.3566,"MEAN_ANOMALY":295.2209,"EPHEMERIS_TYPE":0,"CLASSIFICATION_TYPE":"U","NORAD_CAT_ID":67883,"ELEMENT_SET_NO":999,"REV_AT_EPOCH":544,"BSTAR":-8.6546e-5,"MEAN_MOTION_DOT":-0.00013018,"MEAN_MOTION_DDOT":0},{"OBJECT_NAME":"STARLINK-36842","OBJECT_ID":"2026-035F","EPOCH":"2026-03-19T19:02:58.820640","MEAN_MOTION":15.7520412,"ECCENTRICITY":7.868e-5,"INCLINATION":97.2873,"RA_OF_ASC_NODE":11.6819,"ARG_OF_PERICENTER":60.599,"MEAN_ANOMALY":299.5354,"EPHEMERIS_TYPE":0,"CLASSIFICATION_TYPE":"U","NORAD_CAT_ID":67884,"ELEMENT_SET_NO":999,"REV_AT_EPOCH":543,"BSTAR":0.00083970641,"MEAN_MOTION_DOT":0.00127074,"MEAN_MOTION_DDOT":0},{"OBJECT_NAME":"STARLINK-36826","OBJECT_ID":"2026-035G","EPOCH":"2026-03-20T04:00:01.999584","MEAN_MOTION":15.75142876,"ECCENTRICITY":0.0001398,"INCLINATION":97.2869,"RA_OF_ASC_NODE":12.0946,"ARG_OF_PERICENTER":94.6184,"MEAN_ANOMALY":268.9781,"EPHEMERIS_TYPE":0,"CLASSIFICATION_TYPE":"U","NORAD_CAT_ID":67885,"ELEMENT_SET_NO":999,"REV_AT_EPOCH":544,"BSTAR":0.00047212,"MEAN_MOTION_DOT":0.00070732,"MEAN_MOTION_DDOT":0},{"OBJECT_NAME":"STARLINK-36390","OBJECT_ID":"2026-035H","EPOCH":"2026-03-19T18:59:56.071680","MEAN_MOTION":15.75218975,"ECCENTRICITY":0.00011352,"INCLINATION":97.2859,"RA_OF_ASC_NODE":11.6844,"ARG_OF_PERICENTER":84.2606,"MEAN_ANOMALY":275.8788,"EPHEMERIS_TYPE":0,"CLASSIFICATION_TYPE":"U","NORAD_CAT_ID":67886,"ELEMENT_SET_NO":999,"REV_AT_EPOCH":543,"BSTAR":0.00070222587,"MEAN_MOTION_DOT":0.00106053,"MEAN_MOTION_DDOT":0},{"OBJECT_NAME":"STARLINK-36368","OBJECT_ID":"2026-035J","EPOCH":"2026-03-19T18:34:04.694880","MEAN_MOTION":15.81001324,"ECCENTRICITY":0.0001362,"INCLINATION":97.2883,"RA_OF_ASC_NODE":11.7061,"ARG_OF_PERICENTER":128.9413,"MEAN_ANOMALY":231.1977,"EPHEMERIS_TYPE":0,"CLASSIFICATION_TYPE":"U","NORAD_CAT_ID":67887,"ELEMENT_SET_NO":999,"REV_AT_EPOCH":543,"BSTAR":0.0021625059,"MEAN_MOTION_DOT":0.00439345,"MEAN_MOTION_DDOT":0},{"OBJECT_NAME":"STARLINK-36801","OBJECT_ID":"2026-035K","EPOCH":"2026-03-19T18:33:04.459392","MEAN_MOTION":15.80310588,"ECCENTRICITY":0.00023606,"INCLINATION":97.287,"RA_OF_ASC_NODE":11.7063,"ARG_OF_PERICENTER":100.627,"MEAN_ANOMALY":259.5264,"EPHEMERIS_TYPE":0,"CLASSIFICATION_TYPE":"U","NORAD_CAT_ID":67888,"ELEMENT_SET_NO":999,"REV_AT_EPOCH":543,"BSTAR":-0.0038815,"MEAN_MOTION_DOT":-0.00673449,"MEAN_MOTION_DDOT":0},{"OBJECT_NAME":"STARLINK-36372","OBJECT_ID":"2026-035L","EPOCH":"2026-03-20T04:00:01.999584","MEAN_MOTION":15.75150187,"ECCENTRICITY":0.0001676,"INCLINATION":97.2865,"RA_OF_ASC_NODE":12.1171,"ARG_OF_PERICENTER":101.6744,"MEAN_ANOMALY":319.909,"EPHEMERIS_TYPE":0,"CLASSIFICATION_TYPE":"U","NORAD_CAT_ID":67889,"ELEMENT_SET_NO":999,"REV_AT_EPOCH":544,"BSTAR":0.00030365,"MEAN_MOTION_DOT":0.00045325,"MEAN_MOTION_DDOT":0}]
